[{"OBJECT_NAME":"YAOGAN-30 03B","OBJECT_ID":"2017-075B","EPOCH":"2026-03-09T15:51:36.398016","MEAN_MOTION":15.02124587,"ECCENTRICITY":0.00025102,"INCLINATION":34.9935,"RA_OF_ASC_NODE":156.605,"ARG_OF_PERICENTER":89.1241,"MEAN_ANOMALY":270.9754,"EPHEMERIS_TYPE":0,"CLASSIFICATION_TYPE":"U","NORAD_CAT_ID":43029,"ELEMENT_SET_NO":999,"REV_AT_EPOCH":45238,"BSTAR":0.0003112917,"MEAN_MOTION_DOT":4.149e-5,"MEAN_MOTION_DDOT":0},{"OBJECT_NAME":"STARLINK-6374","OBJECT_ID":"2023-099L","EPOCH":"2026-03-09T13:00:27.232704","MEAN_MOTION":15.02534475,"ECCENTRICITY":0.00012431,"INCLINATION":43.0042,"RA_OF_ASC_NODE":249.8327,"ARG_OF_PERICENTER":266.192,"MEAN_ANOMALY":93.878,"EPHEMERIS_TYPE":0,"CLASSIFICATION_TYPE":"U","NORAD_CAT_ID":57338,"ELEMENT_SET_NO":999,"REV_AT_EPOCH":14609,"BSTAR":-9.089588e-6,"MEAN_MOTION_DOT":-3.26e-6,"MEAN_MOTION_DDOT":0}]
