YAOGAN-30 03B           
1 43029U 17075B   26068.66083794  .00004149  00000+0  31129-3 0  9999
2 43029  34.9935 156.6050 0002510  89.1241 270.9754 15.02124587452380
STARLINK-6374           
1 57338U 23099L   26068.54198186 -.00000326  00000+0 -90896-5 0  9992
2 57338  43.0042 249.8327 0001243 266.1920  93.8780 15.02534475146093
